NUSAT-1 (FRESCO)        
1 41557U 16033B   21312.88783978  .00007926  00000-0  27110-3 0  9990
2 41557  97.3941  46.0890 0014151  84.2187  25.9193 15.30436348303615
BEESAT-4                
1 41619U 16040W   21312.39864304  .00003811  00000-0  14839-3 0  9999
2 41619  97.2510   4.3916 0010568 172.9634 187.1755 15.26533432286961
CAS-2T & KS-1Q          
1 41847U 16066G   21312.90322775  .00000425  00000-0  73298-4 0  9991
2 41847  98.5839  12.5091 0365608 148.9797 213.3552 14.38279318262646
NAYIF-1 (EO-88)         
1 42017U 17008BX  21312.89920683  .00004705  00000-0  16795-3 0  9991
2 42017  97.3001  17.8772 0004678 329.6149  30.4819 15.29335289263325
ZHUHAI-1 02 (CAS-4B)    
1 42759U 17034B   21312.80664045  .00001857  00000-0  12384-3 0  9996
2 42759  43.0158 107.3245 0008893 339.9639 163.3177 15.10526318242976
ZHUHAI-1 01 (CAS-4A)    
1 42761U 17034D   21312.78867713  .00001898  00000-0  12601-3 0  9990
2 42761  43.0165 106.3735 0009204 341.1993 158.9301 15.10613201242972
MAX VALIER SAT          
1 42778U 17036P   21312.50242305  .00002576  00000-0  10815-3 0  9993
2 42778  97.2376 356.3035 0012462  35.7226 324.4843 15.24260719243227
RADFXSAT (FOX-1B)       
1 43017U 17073E   21312.50473456  .00001184  00000-0  95835-4 0  9994
2 43017  97.6921 210.6918 0253308 189.8785 169.7397 14.79931586214423
FOX-1D (AO-92)          
1 43137U 18004AC  21312.43756812  .00003246  00000-0  12883-3 0  9996
2 43137  97.3941  24.9532 0010042  68.3619 291.8688 15.26022365212614
DIWATA-2B               
1 43678U 18084H   21312.93323757  .00000929  00000-0  97775-4 0  9996
2 43678  97.9431  79.1229 0008608 298.4554  61.5783 14.91833586164977
ES'HAIL 2               
1 43700U 18090A   21312.84702126  .00000142  00000-0  00000-0 0  9998
2 43700   0.0155 272.5996 0002036 333.0301 133.3499  1.00270381 10815
FOX-1CLIFF (AO-95)      
1 43770U 18099N   21312.91470926  .00000819  00000-0  78942-4 0  9997
2 43770  97.6503  19.8107 0013176 296.8392  63.1481 14.95529231160041
ITASAT 1                
1 43786U 18099AE  21312.80666081  .00001356  00000-0  12646-3 0  9996
2 43786  97.6528  20.4833 0013538 289.4270  70.5488 14.95797491160060
JY1SAT (JO-97)          
1 43803U 18099AX  21312.41063507  .00001724  00000-0  15819-3 0  9991
2 43803  97.6492  19.8352 0013405 290.6728  69.3056 14.96088387160013
UWE-4                   
1 43880U 18111E   21312.56471350  .00001822  00000-0  16275-3 0  9992
2 43880  97.6774 217.7612 0011835 350.3173   9.7818 14.97110396156647
NEXUS (FO-99)           
1 43937U 19003F   21312.89944098  .00003824  00000-0  14756-3 0  9992
2 43937  97.1600 350.2357 0021546 216.1541 143.8243 15.26655805156295
PSAT2 (NO-104)          
1 44354U 19036R   21312.14374711  .00035969  00000-0  44368-3 0  9996
2 44354  28.5255 245.4611 0302531  39.7940 322.4436 15.19633588130803
BRICSAT2 (NO-103)       
1 44355U 19036S   21312.88427939  .00073137 -49966-5  62432-3 0  9990
2 44355  28.5233 167.0043 0210874 167.4198 193.1770 15.44236775131653
JAISAT-1                
1 44419U 19038F   21312.78308439  .00003059  00000-0  16945-3 0  9999
2 44419  97.6081 277.1429 0020949 169.7098 190.4566 15.14404275129636
DUCHIFAT-3              
1 44854U 19089C   21312.74800105  .00002288  00000-0  18774-3 0  9996
2 44854  36.9659 327.1648 0008348 234.2837 125.7117 14.99781284104774
CAS-6 (TO-108)          
1 44881U 19093C   21312.80324216  .00000419  00000-0  60110-4 0  9998
2 44881  97.9151  29.9859 0015126 177.9647 182.1634 14.81507995102105
RS-44 & BREEZE-KM R/B   
1 44909U 19096E   21312.87405130  .00000009  00000-0 -16266-4 0  9993
2 44909  82.5250  16.8487 0218436 115.3871 247.0018 12.79711213 87296
ORBITAL FACTORY 2 (OF-2)
1 45113U 19071C   21312.34786393  .00006198  00000-0  17632-3 0  9990
2 45113  51.6423  59.1380 0011575  92.3427 267.8882 15.37445699 99292
HUSKYSAT-1 (HO-107)     
1 45119U 19071J   21312.29650538  .00006960  00000-0  19736-3 0  9995
2 45119  51.6423  58.7851 0011056  88.8817 271.3433 15.37338699 99285
BY70-2                  
1 45857U 20042B   21312.78466967  .00004284  00000-0  60642-3 0  9998
2 45857  97.9757  27.0063 0012568 109.4364 250.8196 14.77546644 72853
SALSAT                  
1 46495U 20068K   21312.94419941  .00000925  00000-0  71975-4 0  9993
2 46495  97.7036 249.6678 0015106 308.5354  51.4510 15.03659766 61040
BY70-3                  
1 46839U 20079N   21312.91472832  .00011999  00000-0  35328-3 0  9996
2 46839  97.2287  23.9134 0008315  56.6457  60.9679 15.35167692 56350
RADFXSAT-2 (AO-109)     
1 47311U 21002C   21312.43127204  .00002934  00000-0  13561-3 0  9990
2 47311  60.6859 111.9917 0038650 120.4980 239.9932 15.22355219 44782
UVSQ-SAT                
1 47438U 21006AB  21312.59246563  .00002145  00000-0  12297-3 0  9990
2 47438  97.4699  11.1356 0011579 326.2741  33.7752 15.13605249 43850
DIY-1 (ARDUIQUBE)       
1 47963U 21022AH  21312.18571044  .00004051  00000-0  26425-3 0  9997
2 47963  97.5454 211.9421 0019124 167.6291 192.5411 15.08291106 33556
